NORAD_CAT_ID,OBJECT_NAME,OBJECT_TYPE,EPOCH,MEAN_MOTION,ECCENTRICITY,INCLINATION,RA_OF_ASC_NODE,ARG_OF_PERICENTER,MEAN_ANOMALY,BSTAR,MEAN_MOTION_DOT,MEAN_MOTION_DDOT,TLE_LINE0,TLE_LINE1,TLE_LINE2,SEMIMAJOR_AXIS,PERIOD,APOGEE,PERIGEE,DECAYED
52107.0,STARLINK-3658,PAYLOAD,2024-01-10 07:25:55,15.08841619,0.0001681,53.2189,22.7838,102.0697,258.0484,2.7032e-05,1.42e-06,0.0,0 STARLINK-3658,1 52107U 22029V   24010.30967098  .00000142  00000-0  27032-4 0  9994,2 52107  53.2189  22.7838 0001681 102.0697 258.0484 15.08841619101619,6917.875,95.437,540.903,538.578,0.0
52107.0,STARLINK-3658,PAYLOAD,2024-01-11 04:05:56,15.08844161,0.0001705,53.2185,18.9194,106.5355,253.5824,3.6487e-05,2.93e-06,0.0,0 STARLINK-3658,1 52107U 22029V   24011.17079041  .00000293  00000-0  36487-4 0  9993,2 52107  53.2185  18.9194 0001705 106.5355 253.5824 15.08844161101741,6917.868,95.437,540.912,538.553,0.0
52107.0,STARLINK-3658,PAYLOAD,2024-01-11 05:41:19,15.08844208,0.0001718,53.2187,18.6222,107.1143,253.0037,3.9789e-05,3.45e-06,0.0,0 STARLINK-3658,1 52107U 22029V   24011.23703016  .00000345  00000-0  39789-4 0  9992,2 52107  53.2187  18.6222 0001718 107.1143 253.0037 15.08844208101752,6917.868,95.437,540.921,538.544,0.0
52107.0,STARLINK-3658,PAYLOAD,2024-01-12 03:56:43,15.08835961,0.0001605,53.2186,14.4594,93.0223,267.0953,3.94e-05,3.39e-06,0.0,0 STARLINK-3658,1 52107U 22029V   24012.16439749  .00000339  00000-0  39400-4 0  9997,2 52107  53.2186  14.4594 0001605  93.0223 267.0953 15.08835961101897,6917.893,95.438,540.868,538.647,0.0
52107.0,STARLINK-3658,PAYLOAD,2024-01-12 05:32:07,15.08836031,0.0001732,53.2189,14.1621,97.64,262.4789,4.0007e-05,3.49e-06,0.0,0 STARLINK-3658,1 52107U 22029V   24012.23063779  .00000349  00000-0  40007-4 0  9997,2 52107  53.2189  14.1621 0001732  97.6400 262.4789 15.08836031101903,6917.893,95.438,540.956,538.559,0.0
52107.0,STARLINK-3658,PAYLOAD,2024-01-13 06:58:18,15.08772458,0.0002071,53.2187,9.402,93.36,266.7629,0.0010054,0.0001572,0.0,0 STARLINK-3658,1 52107U 22029V   24013.29049516  .00015720  00000-0  10054-2 0  9993,2 52107  53.2187   9.4020 0002071  93.3600 266.7629 15.08772458102063,6918.087,95.442,541.385,538.519,0.0
52107.0,STARLINK-3658,PAYLOAD,2024-01-14 03:38:18,15.08834589,0.000173,53.2185,5.5331,122.8258,237.2901,5.2189e-05,5.43e-06,0.0,0 STARLINK-3658,1 52107U 22029V   24014.15160187  .00000543  00000-0  52189-4 0  9991,2 52107  53.2185   5.5331 0001730 122.8258 237.2901 15.08834589102195,6917.897,95.438,540.959,538.565,0.0
52107.0,STARLINK-3658,PAYLOAD,2024-01-14 08:24:27,15.08842315,0.0001513,53.2172,4.6387,97.4736,262.6428,0.00012266,1.665e-05,0.0,0 STARLINK-3658,1 52107U 22029V   24014.35031705  .00001665  00000-0  12266-3 0  9993,2 52107  53.2172   4.6387 0001513  97.4736 262.6428 15.08842315102225,6917.873,95.437,540.785,538.692,0.0
52107.0,STARLINK-3658,PAYLOAD,2024-01-15 08:15:13,15.08857727,0.0001628,53.219,0.1828,89.5222,270.5957,0.00020983,3.055e-05,0.0,0 STARLINK-3658,1 52107U 22029V   24015.34390819  .00003055  00000-0  20983-3 0  9997,2 52107  53.2190   0.1828 0001628  89.5222 270.5957 15.08857727102379,6917.826,95.436,540.817,538.565,0.0
52107.0,STARLINK-3658,PAYLOAD,2024-01-15 22:33:43,15.08836484,0.0001423,53.217,357.5083,90.4376,269.6779,4.1461e-05,3.72e-06,0.0,0 STARLINK-3658,1 52107U 22029V   24015.94008748  .00000372  00000-0  41461-4 0  9994,2 52107  53.2170 357.5083 0001423  90.4376 269.6779 15.08836484102461,6917.891,95.438,540.741,538.772,0.0
52107.0,STARLINK-3658,PAYLOAD,2024-01-16 08:06:02,15.08838043,0.0001461,53.2182,355.7238,80.9033,279.2124,4.0666e-05,3.59e-06,0.0,0 STARLINK-3658,1 52107U 22029V   24016.33752673  .00000359  00000-0  40666-4 0  9992,2 52107  53.2182 355.7238 0001461  80.9033 279.2124 15.08838043102523,6917.886,95.438,540.762,538.741,0.0
52107.0,STARLINK-3658,PAYLOAD,2024-01-17 03:10:39,15.08843821,0.0001691,53.219,352.1519,117.7613,242.3551,3.0146e-05,1.92e-06,0.0,0 STARLINK-3658,1 52107U 22029V   24017.13239871  .00000192  00000-0  30146-4 0  9998,2 52107  53.2190 352.1519 0001691 117.7613 242.3551 15.08843821102641,6917.869,95.437,540.904,538.564,0.0
52107.0,STARLINK-3658,PAYLOAD,2024-01-17 04:46:02,15.08844948,0.0001748,53.2189,351.8541,118.6289,241.488,4.3756e-05,4.08e-06,0.0,0 STARLINK-3658,1 52107U 22029V   24017.19863759  .00000408  00000-0  43756-4 0  9993,2 52107  53.2189 351.8541 0001748 118.6289 241.4880 15.08844948102659,6917.865,95.437,540.94,538.521,0.0
52107.0,STARLINK-3658,PAYLOAD,2024-01-18 03:01:26,15.08839793,0.0001517,53.2168,347.6933,100.1654,259.951,6.5056e-05,7.48e-06,0.0,0 STARLINK-3658,1 52107U 22029V   24018.12600342  .00000748  00000-0  65056-4 0  9998,2 52107  53.2168 347.6933 0001517 100.1654 259.9510 15.08839793102791,6917.881,95.438,540.795,538.697,0.0
52107.0,STARLINK-3658,PAYLOAD,2024-01-18 22:06:04,15.08823305,0.0001507,53.2188,344.1227,97.431,262.6854,0.00022698,3.325e-05,0.0,0 STARLINK-3658,1 52107U 22029V   24018.92088922  .00003325  00000-0  22698-3 0  9998,2 52107  53.2188 344.1227 0001507  97.4310 262.6854 15.08823305102915,6917.931,95.439,540.839,538.754,0.0
52107.0,STARLINK-3658,PAYLOAD,2024-01-19 07:38:22,15.08848818,0.0001522,53.2183,342.338,102.1697,257.9465,0.00019566,2.828e-05,0.0,0 STARLINK-3658,1 52107U 22029V   24019.31831668  .00002828  00000-0  19566-3 0  9992,2 52107  53.2183 342.3380 0001522 102.1697 257.9465 15.08848818102976,6917.853,95.437,540.771,538.666,0.0
52107.0,STARLINK-3658,PAYLOAD,2024-01-20 02:43:01,15.08835177,0.0001758,53.2195,338.7676,114.1686,245.949,4.5741e-05,4.4e-06,0.0,0 STARLINK-3658,1 52107U 22029V   24020.11320937  .00000440  00000-0  45741-4 0  9997,2 52107  53.2195 338.7676 0001758 114.1686 245.9490 15.08835177103091,6917.895,95.438,540.976,538.544,0.0
52107.0,STARLINK-3658,PAYLOAD,2024-01-21 04:09:10,15.08849624,0.0001322,53.218,334.0159,84.2448,275.8695,9.1822e-05,1.174e-05,0.0,0 STARLINK-3658,1 52107U 22029V   24021.17304381  .00001174  00000-0  91822-4 0  9995,2 52107  53.2180 334.0159 0001322  84.2448 275.8695 15.08849624103259,6917.851,95.437,540.631,538.801,0.0
52107.0,STARLINK-3658,PAYLOAD,2024-01-21 05:44:33,15.08854078,0.0001411,53.2183,333.7168,95.9911,264.1242,0.0001409,1.956e-05,0.0,0 STARLINK-3658,1 52107U 22029V   24021.23928007  .00001956  00000-0  14090-3 0  9998,2 52107  53.2183 333.7168 0001411  95.9911 264.1242 15.08854078103260,6917.837,95.437,540.678,538.726,0.0
52107.0,STARLINK-3658,PAYLOAD,2024-01-22 03:59:58,15.08848167,0.0001344,53.2173,329.5556,91.874,268.2406,0.00023885,3.516e-05,0.0,0 STARLINK-3658,1 52107U 22029V   24022.16664468  .00003516  00000-0  23885-3 0  9995,2 52107  53.2173 329.5556 0001344  91.8740 268.2406 15.08848167103408,6917.855,95.437,540.65,538.791,0.0
52107.0,STARLINK-3658,PAYLOAD,2024-01-22 05:35:21,15.0885165,0.0001337,53.2172,329.2581,98.1125,262.0019,0.00030737,4.609e-05,0.0,0 STARLINK-3658,1 52107U 22029V   24022.23288361  .00004609  00000-0  30737-3 0  9995,2 52107  53.2172 329.2581 0001337  98.1125 262.0019 15.08851650103415,6917.845,95.437,540.635,538.785,0.0
52107.0,STARLINK-3658,PAYLOAD,2024-01-23 03:50:45,15.08844446,0.0001583,53.2179,325.097,83.1234,276.9938,0.00013472,1.857e-05,0.0,0 STARLINK-3658,1 52107U 22029V   24023.16024797  .00001857  00000-0  13472-3 0  9998,2 52107  53.2179 325.0970 0001583  83.1234 276.9938 15.08844446103550,6917.867,95.437,540.827,538.637,0.0
52107.0,STARLINK-3658,PAYLOAD,2024-01-24 02:06:09,15.08844467,0.0002029,53.219,320.9287,65.5336,294.5868,0.00015371,2.159e-05,0.0,0 STARLINK-3658,1 52107U 22029V   24024.08761149  .00002159  00000-0  15371-3 0  9995,2 52107  53.2190 320.9287 0002029  65.5336 294.5868 15.08844467103697,6917.867,95.437,541.135,538.328,0.0
52107.0,STARLINK-3658,PAYLOAD,2024-01-24 22:46:10,15.08843545,0.0001881,53.2177,317.0773,119.9774,240.1405,0.00013483,1.859e-05,0.0,0 STARLINK-3658,1 52107U 22029V   24024.94873005  .00001859  00000-0  13483-3 0  9993,2 52107  53.2177 317.0773 0001881 119.9774 240.1405 15.08843545103829,6917.87,95.437,541.036,538.433,0.0
52107.0,STARLINK-3658,PAYLOAD,2024-01-25 01:56:56,15.08845882,0.0001717,53.2178,316.4762,107.2844,252.8336,0.00012081,1.635e-05,0.0,0 STARLINK-3658,1 52107U 22029V   24025.08120841  .00001635  00000-0  12081-3 0  9997,2 52107  53.2178 316.4762 0001717 107.2844 252.8336 15.08845882103848,6917.862,95.437,540.915,538.54,0.0
52107.0,STARLINK-3658,PAYLOAD,2024-01-25 22:36:57,15.08834781,0.0001761,53.2181,312.6074,113.7881,246.3296,0.00018952,2.729e-05,0.0,0 STARLINK-3658,1 52107U 22029V   24025.94233457  .00002729  00000-0  18952-3 0  9998,2 52107  53.2181 312.6074 0001761 113.7881 246.3296 15.08834781103971,6917.896,95.438,540.98,538.543,0.0
52107.0,STARLINK-3658,PAYLOAD,2024-01-26 01:47:43,15.08842604,0.0001676,53.2183,312.0114,102.4774,257.6406,2.3517e-05,8.6e-07,0.0,0 STARLINK-3658,1 52107U 22029V   24026.07481110  .00000086  00000-0  23517-4 0  9992,2 52107  53.2183 312.0114 0001676 102.4774 257.6406 15.08842604103996,6917.872,95.437,540.897,538.578,0.0
52107.0,STARLINK-3658,PAYLOAD,2024-01-27 01:38:31,15.08827873,0.0001887,53.2183,307.5514,113.4386,246.6805,0.00068361,0.00010605,0.0,0 STARLINK-3658,1 52107U 22029V   24027.06841839  .00010605  00000-0  68361-3 0  9993,2 52107  53.2183 307.5514 0001887 113.4386 246.6805 15.08827873104144,6917.917,95.438,541.088,538.477,0.0
52107.0,STARLINK-3658,PAYLOAD,2024-01-27 22:18:31,15.08835931,0.0001603,53.2179,303.6835,102.3893,257.7279,-7.1223e-06,-4.01e-06,0.0,0 STARLINK-3658,1 52107U 22029V   24027.92953458 -.00000401  00000-0 -71223-5 0  9997,2 52107  53.2179 303.6835 0001603 102.3893 257.7279 15.08835931104274,6917.893,95.438,540.867,538.649,0.0
52107.0,STARLINK-3658,PAYLOAD,2024-01-27 23:53:55,15.08834976,0.0001571,53.2188,303.3849,100.2512,259.8658,4.3271e-05,4.01e-06,0.0,0 STARLINK-3658,1 52107U 22029V   24027.99577886  .00000401  00000-0  43271-4 0  9990,2 52107  53.2188 303.3849 0001571 100.2512 259.8658 15.08834976104288,6917.896,95.438,540.848,538.674,0.0
